{"type": "FeatureCollection", "features": [ {"type": "Feature", "properties": {"norad_id": 31879, "name": "FENGYUN 1C DEB", "group": "fengyun-1c-debris", "lat": -73.3155135497453, "lon": 12.511547849255482, "alt_km": 860.2943501460013, "timestamp": "2025-12-14T14:39:29.654987+00:00", "meta": {"OBJECT_NAME": "FENGYUN 1C DEB", "OBJECT_ID": "1999-025CKE", "EPOCH": "2025-12-12T21:31:50.327328", "MEAN_MOTION": 14.4290494, "ECCENTRICITY": 0.02098138, "INCLINATION": 99.7067, "RA_OF_ASC_NODE": 225.3867, "ARG_OF_PERICENTER": 36.3016, "MEAN_ANOMALY": 325.2198, "EPHEMERIS_TYPE": 0, "CLASSIFICATION_TYPE": "U", "NORAD_CAT_ID": 31879, "ELEMENT_SET_NO": 999, "REV_AT_EPOCH": 63212, "BSTAR": 0.00053627448, "MEAN_MOTION_DOT": 2.273e-05, "MEAN_MOTION_DDOT": 0}, "tle": {"line1": "1 31879U 99025CKE 25346.89711027  .00002273  00000+0  53627-3 0  9997", "line2": "2 31879  99.7067 225.3867 0209813  36.3016 325.2198 14.42904940632124"}}, "geometry": {"type": "Point", "coordinates": [12.511547849255482, -73.3155135497453]}}, {"type": "Feature", "properties": {"norad_id": 31880, "name": "FENGYUN 1C DEB", "group": "fengyun-1c-debris", "lat": 8.750819631722296, "lon": -26.876082635380687, "alt_km": 846.6561839500991, "timestamp": "2025-12-14T14:39:29.654999+00:00", "meta": {"OBJECT_NAME": "FENGYUN 1C DEB", "OBJECT_ID": "1999-025CKF", "EPOCH": "2025-12-11T16:42:46.632384", "MEAN_MOTION": 13.89397693, "ECCENTRICITY": 0.01281078, "INCLINATION": 100.0286, "RA_OF_ASC_NODE": 148.4273, "ARG_OF_PERICENTER": 154.5547, "MEAN_ANOMALY": 206.199, "EPHEMERIS_TYPE": 0, "CLASSIFICATION_TYPE": "U", "NORAD_CAT_ID": 31880, "ELEMENT_SET_NO": 999, "REV_AT_EPOCH": 62965, "BSTAR": 0.00070027147, "MEAN_MOTION_DOT": 8.62e-06, "MEAN_MOTION_DDOT": 0}, "tle": {"line1": "1 31880U 99025CKF 25345.69637306  .00000862  00000+0  70027-3 0  9998", "line2": "2 31880 100.0286 148.4273 0128107 154.5547 206.1990 13.89397693629651"}}, "geometry": {"type": "Point", "coordinates": [-26.876082635380687, 8.750819631722296]}}, {"type": "Feature", "properties": {"norad_id": 31882, "name": "FENGYUN 1C DEB", "group": "fengyun-1c-debris", "lat": -80.49646950442119, "lon": 21.45403724280873, "alt_km": 838.7517647067216, "timestamp": "2025-12-14T14:39:29.655009+00:00", "meta": {"OBJECT_NAME": "FENGYUN 1C DEB", "OBJECT_ID": "1999-025CKH", "EPOCH": "2025-12-04T12:04:11.131104", "MEAN_MOTION": 14.12940251, "ECCENTRICITY": 0.0035445, "INCLINATION": 98.9162, "RA_OF_ASC_NODE": 261.0675, "ARG_OF_PERICENTER": 248.9848, "MEAN_ANOMALY": 110.7531, "EPHEMERIS_TYPE": 0, "CLASSIFICATION_TYPE": "U", "NORAD_CAT_ID": 31882, "ELEMENT_SET_NO": 999, "REV_AT_EPOCH": 58520, "BSTAR": 0.0011941, "MEAN_MOTION_DOT": 2.193e-05, "MEAN_MOTION_DDOT": 0}, "tle": {"line1": "1 31882U 99025CKH 25338.50290661  .00002193  00000+0  11941-2 0  9999", "line2": "2 31882  98.9162 261.0675 0035445 248.9848 110.7531 14.12940251585207"}}, "geometry": {"type": "Point", "coordinates": [21.45403724280873, -80.49646950442119]}}, {"type": "Feature", "properties": {"norad_id": 31883, "name": "FENGYUN 1C DEB", "group": "fengyun-1c-debris", "lat": -25.32140976521524, "lon": -90.25651070594132, "alt_km": 671.2031754659738, "timestamp": "2025-12-14T14:39:29.655019+00:00", "meta": {"OBJECT_NAME": "FENGYUN 1C DEB", "OBJECT_ID": "1999-025CKJ", "EPOCH": "2025-12-13T17:30:17.149824", "MEAN_MOTION": 14.67737511, "ECCENTRICITY": 0.01250952, "INCLINATION": 99.0285, "RA_OF_ASC_NODE": 264.4578, "ARG_OF_PERICENTER": 66.148, "MEAN_ANOMALY": 295.2774, "EPHEMERIS_TYPE": 0, "CLASSIFICATION_TYPE": "U", "NORAD_CAT_ID": 31883, "ELEMENT_SET_NO": 999, "REV_AT_EPOCH": 97993, "BSTAR": 0.00074743926, "MEAN_MOTION_DOT": 4.73e-05, "MEAN_MOTION_DDOT": 0}, "tle": {"line1": "1 31883U 99025CKJ 25347.72936516  .00004730  00000+0  74744-3 0  9990", "line2": "2 31883  99.0285 264.4578 0125095  66.1480 295.2774 14.67737511979936"}}, "geometry": {"type": "Point", "coordinates": [-90.25651070594132, -25.32140976521524]}}, {"type": "Feature", "properties": {"norad_id": 31887, "name": "FENGYUN 1C DEB", "group": "fengyun-1c-debris", "lat": 49.08830199149343, "lon": 29.298258455156763, "alt_km": 684.9899618227773, "timestamp": "2025-12-14T14:39:29.655030+00:00", "meta": {"OBJECT_NAME": "FENGYUN 1C DEB", "OBJECT_ID": "1999-025CKN", "EPOCH": "2025-12-12T14:39:37.201536", "MEAN_MOTION": 14.57788062, "ECCENTRICITY": 0.00240817, "INCLINATION": 99.5344, "RA_OF_ASC_NODE": 38.1927, "ARG_OF_PERICENTER": 5.1175, "MEAN_ANOMALY": 355.0261, "EPHEMERIS_TYPE": 0, "CLASSIFICATION_TYPE": "U", "NORAD_CAT_ID": 31887, "ELEMENT_SET_NO": 999, "REV_AT_EPOCH": 96606, "BSTAR": 0.0013818212, "MEAN_MOTION_DOT": 6.29e-05, "MEAN_MOTION_DDOT": 0}, "tle": {"line1": "1 31887U 99025CKN 25346.61084724  .00006290  00000+0  13818-2 0  9993", "line2": "2 31887  99.5344  38.1927 0024081   5.1175 355.0261 14.57788062966064"}}, "geometry": {"type": "Point", "coordinates": [29.298258455156763, 49.08830199149343]}}, {"type": "Feature", "properties": {"norad_id": 31888, "name": "FENGYUN 1C DEB", "group": "fengyun-1c-debris", "lat": -75.18471494709551, "lon": -47.30639340475074, "alt_km": 781.5147861684973, "timestamp": "2025-12-14T14:39:29.655040+00:00", "meta": {"OBJECT_NAME": "FENGYUN 1C DEB", "OBJECT_ID": "1999-025CKP", "EPOCH": "2025-12-12T06:05:07.465632", "MEAN_MOTION": 14.33928, "ECCENTRICITY": 0.00174329, "INCLINATION": 99.1553, "RA_OF_ASC_NODE": 272.6311, "ARG_OF_PERICENTER": 218.3989, "MEAN_ANOMALY": 141.5953, "EPHEMERIS_TYPE": 0, "CLASSIFICATION_TYPE": "U", "NORAD_CAT_ID": 31888, "ELEMENT_SET_NO": 999, "REV_AT_EPOCH": 95630, "BSTAR": 0.0033296419, "MEAN_MOTION_DOT": 9.261e-05, "MEAN_MOTION_DDOT": 0}, "tle": {"line1": "1 31888U 99025CKP 25346.25355863  .00009261  00000+0  33296-2 0  9992", "line2": "2 31888  99.1553 272.6311 0017432 218.3989 141.5953 14.33928000956302"}}, "geometry": {"type": "Point", "coordinates": [-47.30639340475074, -75.18471494709551]}}, {"type": "Feature", "properties": {"norad_id": 31890, "name": "FENGYUN 1C DEB", "group": "fengyun-1c-debris", "lat": 17.54214924073629, "lon": -177.14557634092026, "alt_km": 845.2488810563209, "timestamp": "2025-12-14T14:39:29.655049+00:00", "meta": {"OBJECT_NAME": "FENGYUN 1C DEB", "OBJECT_ID": "1999-025CKR", "EPOCH": "2025-12-13T07:13:55.916832", "MEAN_MOTION": 14.10133411, "ECCENTRICITY": 0.00716633, "INCLINATION": 98.7189, "RA_OF_ASC_NODE": 358.8048, "ARG_OF_PERICENTER": 240.5449, "MEAN_ANOMALY": 118.8559, "EPHEMERIS_TYPE": 0, "CLASSIFICATION_TYPE": "U", "NORAD_CAT_ID": 31890, "ELEMENT_SET_NO": 999, "REV_AT_EPOCH": 64160, "BSTAR": 0.0001662561, "MEAN_MOTION_DOT": 2.58e-06, "MEAN_MOTION_DDOT": 0}, "tle": {"line1": "1 31890U 99025CKR 25347.30134163  .00000258  00000+0  16626-3 0  9996", "line2": "2 31890  98.7189 358.8048 0071663 240.5449 118.8559 14.10133411641605"}}, "geometry": {"type": "Point", "coordinates": [-177.14557634092026, 17.54214924073629]}}, {"type": "Feature", "properties": {"norad_id": 31891, "name": "FENGYUN 1C DEB", "group": "fengyun-1c-debris", "lat": 44.86807475535554, "lon": -166.86371264784685, "alt_km": 888.3000598887802, "timestamp": "2025-12-14T14:39:29.655059+00:00", "meta": {"OBJECT_NAME": "FENGYUN 1C DEB", "OBJECT_ID": "1999-025CKS", "EPOCH": "2025-12-13T06:21:25.682112", "MEAN_MOTION": 13.66204528, "ECCENTRICITY": 0.02249336, "INCLINATION": 99.4026, "RA_OF_ASC_NODE": 2.3357, "ARG_OF_PERICENTER": 181.9522, "MEAN_ANOMALY": 178.0766, "EPHEMERIS_TYPE": 0, "CLASSIFICATION_TYPE": "U", "NORAD_CAT_ID": 31891, "ELEMENT_SET_NO": 999, "REV_AT_EPOCH": 92417, "BSTAR": 0.00072928378, "MEAN_MOTION_DOT": 6.73e-06, "MEAN_MOTION_DDOT": 0}, "tle": {"line1": "1 31891U 99025CKS 25347.26488058  .00000673  00000+0  72928-3 0  9995", "line2": "2 31891  99.4026   2.3357 0224933 181.9522 178.0766 13.66204528924170"}}, "geometry": {"type": "Point", "coordinates": [-166.86371264784685, 44.86807475535554]}}, {"type": "Feature", "properties": {"norad_id": 31892, "name": "FENGYUN 1C DEB", "group": "fengyun-1c-debris", "lat": -40.91791963808702, "lon": -29.619106193226106, "alt_km": 687.6775603207298, "timestamp": "2025-12-14T14:39:29.655073+00:00", "meta": {"OBJECT_NAME": "FENGYUN 1C DEB", "OBJECT_ID": "1999-025CKT", "EPOCH": "2025-12-06T17:19:53.766912", "MEAN_MOTION": 14.41156255, "ECCENTRICITY": 0.01986119, "INCLINATION": 99.2881, "RA_OF_ASC_NODE": 149.9643, "ARG_OF_PERICENTER": 304.4066, "MEAN_ANOMALY": 53.8482, "EPHEMERIS_TYPE": 0, "CLASSIFICATION_TYPE": "U", "NORAD_CAT_ID": 31892, "ELEMENT_SET_NO": 999, "REV_AT_EPOCH": 64819, "BSTAR": 0.001005312, "MEAN_MOTION_DOT": 4.04e-05, "MEAN_MOTION_DDOT": 0}, "tle": {"line1": "1 31892U 99025CKT 25340.72215008  .00004040  00000+0  10053-2 0  9995", "line2": "2 31892  99.2881 149.9643 0198611 304.4066  53.8482 14.41156255648199"}}, "geometry": {"type": "Point", "coordinates": [-29.619106193226106, -40.91791963808702]}}, {"type": "Feature", "properties": {"norad_id": 31893, "name": "FENGYUN 1C DEB", "group": "fengyun-1c-debris", "lat": 25.928746023722116, "lon": -57.378851839436514, "alt_km": 626.8402889661356, "timestamp": "2025-12-14T14:39:29.655104+00:00", "meta": {"OBJECT_NAME": "FENGYUN 1C DEB", "OBJECT_ID": "1999-025CKU", "EPOCH": "2025-12-12T15:47:49.240320", "MEAN_MOTION": 14.6375851, "ECCENTRICITY": 0.01749458, "INCLINATION": 99.0698, "RA_OF_ASC_NODE": 304.9273, "ARG_OF_PERICENTER": 327.0001, "MEAN_ANOMALY": 214.4613, "EPHEMERIS_TYPE": 0, "CLASSIFICATION_TYPE": "U", "NORAD_CAT_ID": 31893, "ELEMENT_SET_NO": 999, "REV_AT_EPOCH": 98403, "BSTAR": 0.0006699444, "MEAN_MOTION_DOT": 4.296e-05, "MEAN_MOTION_DDOT": 0}, "tle": {"line1": "1 31893U 99025CKU 25346.65820880  .00004296  00000+0  66994-3 0  9993", "line2": "2 31893  99.0698 304.9273 0174945 327.0001 214.4613 14.63758510984033"}}, "geometry": {"type": "Point", "coordinates": [-57.378851839436514, 25.928746023722116]}}]}